[{"OBJECT_NAME":"STARLINK-3459","OBJECT_ID":"2022-016AV","EPOCH":"2026-03-09T22:13:54.539616","MEAN_MOTION":15.08836822,"ECCENTRICITY":0.00012682,"INCLINATION":53.2177,"RA_OF_ASC_NODE":308.071,"ARG_OF_PERICENTER":84.3561,"MEAN_ANOMALY":275.7576,"EPHEMERIS_TYPE":0,"CLASSIFICATION_TYPE":"U","NORAD_CAT_ID":51757,"ELEMENT_SET_NO":999,"REV_AT_EPOCH":22374,"BSTAR":7.9981942e-5,"MEAN_MOTION_DOT":9.85e-6,"MEAN_MOTION_DDOT":0},{"OBJECT_NAME":"COSMOS 2535 DEB","OBJECT_ID":"2019-039J","EPOCH":"2026-03-09T22:02:27.714912","MEAN_MOTION":15.13627487,"ECCENTRICITY":0.00116202,"INCLINATION":97.5293,"RA_OF_ASC_NODE":109.4577,"ARG_OF_PERICENTER":13.0457,"MEAN_ANOMALY":347.1072,"EPHEMERIS_TYPE":0,"CLASSIFICATION_TYPE":"U","NORAD_CAT_ID":44632,"ELEMENT_SET_NO":999,"REV_AT_EPOCH":34998,"BSTAR":0.00064044542,"MEAN_MOTION_DOT":0.00011468,"MEAN_MOTION_DDOT":0}]
